start=new Date('2023-05-23T00:00:00.000Z').valueOf();
sats=[{"EPOCH":"2023-05-22T19:18:30.726720","REV_AT_EPOCH":"2338","FILE":"3914964","BSTAR":"0.00007959500000","TIME_SYSTEM":"UTC","TLE_LINE1":"1 54851U 22177AH  23142.80452230  .00000872  00000-0  79595-4 0  9994","TLE_LINE2":"2 54851  43.0043 273.2669 0001722 268.1710  91.8935 15.02550317 23381","INCLINATION":"43.0043","NORAD_CAT_ID":"54851","DECAY_DATE":null,"APOAPSIS":"560.232","LAUNCH_DATE":"2022-12-28","ELEMENT_SET_NO":"999","GP_ID":"232361119","MEAN_MOTION_DDOT":"0.0000000000000","OBJECT_NAME":"STARLINK-5084","RCS_SIZE":"LARGE","MEAN_ANOMALY":"91.8935","ARG_OF_PERICENTER":"268.1710","SITE":"AFETR","CENTER_NAME":"EARTH","MEAN_MOTION":"15.02550317","PERIAPSIS":"557.843","ECCENTRICITY":"0.00017220","EPHEMERIS_TYPE":"0","SEMIMAJOR_AXIS":"6937.172","PERIOD":"95.837","RA_OF_ASC_NODE":"273.2669","OBJECT_ID":"2022-177AH","MEAN_ELEMENT_THEORY":"SGP4","CLASSIFICATION_TYPE":"U","OBJECT_TYPE":"PAYLOAD","COUNTRY_CODE":"US","MEAN_MOTION_DOT":"0.00000872","REF_FRAME":"TEME"},{"REV_AT_EPOCH":"2339","FILE":"3914964","EPOCH":"2023-05-22T20:41:28.156416","TIME_SYSTEM":"UTC","BSTAR":"0.00093760000000","TLE_LINE2":"2 54852  43.0033 272.8401 0001535 282.0193  78.0477 15.02553311 23398","TLE_LINE1":"1 54852U 22177AJ  23142.86213144  .00012490  00000-0  93760-3 0  9998","NORAD_CAT_ID":"54852","INCLINATION":"43.0033","LAUNCH_DATE":"2022-12-28","ELEMENT_SET_NO":"999","APOAPSIS":"560.093","DECAY_DATE":null,"ARG_OF_PERICENTER":"282.0193","SITE":"AFETR","GP_ID":"232361370","RCS_SIZE":"LARGE","MEAN_ANOMALY":"78.0477","OBJECT_NAME":"STARLINK-5418","MEAN_MOTION_DDOT":"0.0000000000000","ECCENTRICITY":"0.00015350","CENTER_NAME":"EARTH","PERIAPSIS":"557.963","MEAN_MOTION":"15.02553311","PERIOD":"95.837","RA_OF_ASC_NODE":"272.8401","OBJECT_ID":"2022-177AJ","EPHEMERIS_TYPE":"0","SEMIMAJOR_AXIS":"6937.163","REF_FRAME":"TEME","MEAN_ELEMENT_THEORY":"SGP4","MEAN_MOTION_DOT":"0.00012490","COUNTRY_CODE":"US","CLASSIFICATION_TYPE":"U","OBJECT_TYPE":"PAYLOAD"},{"TLE_LINE2":"2 54853  43.0045 273.2251 0001548 268.5728  91.4937 15.02547766 23383","TLE_LINE1":"1 54853U 22177AK  23142.79897541  .00000370  00000-0  42440-4 0  9994","NORAD_CAT_ID":"54853","INCLINATION":"43.0045","LAUNCH_DATE":"2022-12-28","ELEMENT_SET_NO":"999","APOAPSIS":"560.119","DECAY_DATE":null,"REV_AT_EPOCH":"2338","FILE":"3914964","EPOCH":"2023-05-22T19:10:31.475424","TIME_SYSTEM":"UTC","BSTAR":"0.00004244000000","PERIOD":"95.837","OBJECT_ID":"2022-177AK","RA_OF_ASC_NODE":"273.2251","EPHEMERIS_TYPE":"0","SEMIMAJOR_AXIS":"6937.180","REF_FRAME":"TEME","MEAN_ELEMENT_THEORY":"SGP4","MEAN_MOTION_DOT":"0.00000370","COUNTRY_CODE":"US","CLASSIFICATION_TYPE":"U","OBJECT_TYPE":"PAYLOAD","ARG_OF_PERICENTER":"268.5728","SITE":"AFETR","GP_ID":"232362106","MEAN_ANOMALY":"91.4937","RCS_SIZE":"LARGE","OBJECT_NAME":"STARLINK-5427","MEAN_MOTION_DDOT":"0.0000000000000","ECCENTRICITY":"0.00015480","CENTER_NAME":"EARTH","PERIAPSIS":"557.971","MEAN_MOTION":"15.02547766"},{"TIME_SYSTEM":"UTC","BSTAR":"0.00016139000000","EPOCH":"2023-05-22T18:57:44.271936","FILE":"3914950","REV_AT_EPOCH":"2240","APOAPSIS":"559.996","DECAY_DATE":null,"ELEMENT_SET_NO":"999","LAUNCH_DATE":"2022-12-28","NORAD_CAT_ID":"54854","INCLINATION":"43.0035","TLE_LINE1":"1 54854U 22177AL  23142.79009574  .00001978  00000-0  16139-3 0  9996","TLE_LINE2":"2 54854  43.0035 273.1589 0001367 271.5710  88.4976 15.02547092 22403","PERIAPSIS":"558.099","MEAN_MOTION":"15.02547092","CENTER_NAME":"EARTH","ECCENTRICITY":"0.00013670","MEAN_ANOMALY":"88.4976","RCS_SIZE":"LARGE","MEAN_MOTION_DDOT":"0.0000000000000","OBJECT_NAME":"STARLINK-5419","GP_ID":"232335547","SITE":"AFETR","ARG_OF_PERICENTER":"271.5710","COUNTRY_CODE":"US","MEAN_MOTION_DOT":"0.00001978","CLASSIFICATION_TYPE":"U","OBJECT_TYPE":"PAYLOAD","MEAN_ELEMENT_THEORY":"SGP4","REF_FRAME":"TEME","SEMIMAJOR_AXIS":"6937.182","EPHEMERIS_TYPE":"0","OBJECT_ID":"2022-177AL","RA_OF_ASC_NODE":"273.1589","PERIOD":"95.837"},{"EPOCH":"2023-05-22T20:36:40.243104","FILE":"3914964","REV_AT_EPOCH":"2339","BSTAR":"0.00050139000000","TIME_SYSTEM":"UTC","INCLINATION":"43.0033","NORAD_CAT_ID":"54855","TLE_LINE2":"2 54855  43.0033 272.8156 0001612 272.1315  87.9343 15.02553877 23398","TLE_LINE1":"1 54855U 22177AM  23142.85879911  .00006579  00000-0  50139-3 0  9994","DECAY_DATE":null,"APOAPSIS":"560.145","ELEMENT_SET_NO":"999","LAUNCH_DATE":"2022-12-28","OBJECT_NAME":"STARLINK-5416","MEAN_MOTION_DDOT":"0.0000000000000","MEAN_ANOMALY":"87.9343","RCS_SIZE":"LARGE","GP_ID":"232360620","SITE":"AFETR","ARG_OF_PERICENTER":"272.1315","MEAN_MOTION":"15.02553877","PERIAPSIS":"557.908","CENTER_NAME":"EARTH","ECCENTRICITY":"0.00016120","SEMIMAJOR_AXIS":"6937.162","EPHEMERIS_TYPE":"0","RA_OF_ASC_NODE":"272.8156","OBJECT_ID":"2022-177AM","PERIOD":"95.837","OBJECT_TYPE":"PAYLOAD","CLASSIFICATION_TYPE":"U","MEAN_MOTION_DOT":"0.00006579","COUNTRY_CODE":"US","MEAN_ELEMENT_THEORY":"SGP4","REF_FRAME":"TEME"},{"GP_ID":"232361870","RCS_SIZE":"LARGE","MEAN_ANOMALY":"93.9682","OBJECT_NAME":"STARLINK-5086","MEAN_MOTION_DDOT":"0.0000000000000","ARG_OF_PERICENTER":"266.0968","SITE":"AFETR","CENTER_NAME":"EARTH","PERIAPSIS":"557.896","MEAN_MOTION":"15.02543114","ECCENTRICITY":"0.00016780","EPHEMERIS_TYPE":"0","SEMIMAJOR_AXIS":"6937.195","PERIOD":"95.838","RA_OF_ASC_NODE":"272.6627","OBJECT_ID":"2022-177AN","MEAN_ELEMENT_THEORY":"SGP4","COUNTRY_CODE":"US","MEAN_MOTION_DOT":"0.00000039","OBJECT_TYPE":"PAYLOAD","CLASSIFICATION_TYPE":"U","REF_FRAME":"TEME","EPOCH":"2023-05-22T20:07:54.056640","REV_AT_EPOCH":"2339","FILE":"3914964","TIME_SYSTEM":"UTC","BSTAR":"0.00001796800000","TLE_LINE2":"2 54856  43.0045 272.6627 0001678 266.0968  93.9682 15.02543114 23397","TLE_LINE1":"1 54856U 22177AN  23142.83882010  .00000039  00000-0  17968-4 0  9996","NORAD_CAT_ID":"54856","INCLINATION":"43.0045","APOAPSIS":"560.224","DECAY_DATE":null,"LAUNCH_DATE":"2022-12-28","ELEMENT_SET_NO":"999"},{"NORAD_CAT_ID":"54857","INCLINATION":"43.0046","TLE_LINE2":"2 54857  43.0046 273.2091 0001427 285.1609  74.9076 15.02549796 23384","TLE_LINE1":"1 54857U 22177AP  23142.79675676  .00001180  00000-0  10238-3 0  9990","APOAPSIS":"560.029","DECAY_DATE":null,"ELEMENT_SET_NO":"999","LAUNCH_DATE":"2022-12-28","EPOCH":"2023-05-22T19:07:19.784064","FILE":"3914964","REV_AT_EPOCH":"2338","TIME_SYSTEM":"UTC","BSTAR":"0.00010238000000","SEMIMAJOR_AXIS":"6937.174","EPHEMERIS_TYPE":"0","OBJECT_ID":"2022-177AP","RA_OF_ASC_NODE":"273.2091","PERIOD":"95.837","COUNTRY_CODE":"US","MEAN_MOTION_DOT":"0.00001180","CLASSIFICATION_TYPE":"U","OBJECT_TYPE":"PAYLOAD","MEAN_ELEMENT_THEORY":"SGP4","REF_FRAME":"TEME","RCS_SIZE":"LARGE","MEAN_ANOMALY":"74.9076","MEAN_MOTION_DDOT":"0.0000000000000","OBJECT_NAME":"STARLINK-5078","GP_ID":"232361607","SITE":"AFETR","ARG_OF_PERICENTER":"285.1609","PERIAPSIS":"558.049","MEAN_MOTION":"15.02549796","CENTER_NAME":"EARTH","ECCENTRICITY":"0.00014270"},{"SITE":"AFETR","ARG_OF_PERICENTER":"266.9365","MEAN_MOTION_DDOT":"0.0000000000000","OBJECT_NAME":"STARLINK-5407","MEAN_ANOMALY":"93.1281","RCS_SIZE":"LARGE","GP_ID":"232360870","ECCENTRICITY":"0.00017140","MEAN_MOTION":"15.01740753","PERIAPSIS":"560.341","CENTER_NAME":"EARTH","OBJECT_ID":"2022-177AQ","RA_OF_ASC_NODE":"272.7537","PERIOD":"95.889","SEMIMAJOR_AXIS":"6939.665","EPHEMERIS_TYPE":"0","REF_FRAME":"TEME","OBJECT_TYPE":"PAYLOAD","CLASSIFICATION_TYPE":"U","MEAN_MOTION_DOT":"-0.00006691","COUNTRY_CODE":"US","MEAN_ELEMENT_THEORY":"SGP4","FILE":"3914964","REV_AT_EPOCH":"2339","EPOCH":"2023-05-22T20:25:00.195744","BSTAR":"-0.00049100000000","TIME_SYSTEM":"UTC","INCLINATION":"43.0040","NORAD_CAT_ID":"54858","TLE_LINE1":"1 54858U 22177AQ  23142.85069671 -.00006691  00000-0 -49100-3 0  9994","TLE_LINE2":"2 54858  43.0040 272.7537 0001714 266.9365  93.1281 15.01740753 23390","ELEMENT_SET_NO":"999","LAUNCH_DATE":"2022-12-28","DECAY_DATE":null,"APOAPSIS":"562.720"},{"ECCENTRICITY":"0.00017200","MEAN_MOTION":"15.02555314","PERIAPSIS":"557.829","CENTER_NAME":"EARTH","SITE":"AFETR","ARG_OF_PERICENTER":"264.5764","MEAN_MOTION_DDOT":"0.0000000000000","OBJECT_NAME":"STARLINK-5409","MEAN_ANOMALY":"95.4882","RCS_SIZE":"LARGE","GP_ID":"232361120","REF_FRAME":"TEME","OBJECT_TYPE":"PAYLOAD","CLASSIFICATION_TYPE":"U","MEAN_MOTION_DOT":"0.00014757","COUNTRY_CODE":"US","MEAN_ELEMENT_THEORY":"SGP4","RA_OF_ASC_NODE":"272.6868","OBJECT_ID":"2022-177AR","PERIOD":"95.837","SEMIMAJOR_AXIS":"6937.157","EPHEMERIS_TYPE":"0","BSTAR":"0.00110460000000","TIME_SYSTEM":"UTC","FILE":"3914964","REV_AT_EPOCH":"2339","EPOCH":"2023-05-22T20:12:42.156576","ELEMENT_SET_NO":"999","LAUNCH_DATE":"2022-12-28","DECAY_DATE":null,"APOAPSIS":"560.215","INCLINATION":"43.0038","NORAD_CAT_ID":"54859","TLE_LINE1":"1 54859U 22177AR  23142.84215459  .00014757  00000-0  11046-2 0  9998","TLE_LINE2":"2 54859  43.0038 272.6868 0001720 264.5764  95.4882 15.02555314 23398"},{"FILE":"3914964","REV_AT_EPOCH":"2339","EPOCH":"2023-05-22T20:04:41.689632","TIME_SYSTEM":"UTC","BSTAR":"0.00000290040000","NORAD_CAT_ID":"54860","INCLINATION":"43.0047","TLE_LINE2":"2 54860  43.0047 272.6458 0001522 268.1975  91.8693 15.02548098 23390","TLE_LINE1":"1 54860U 22177AS  23142.83659363 -.00000165  00000-0  29004-5 0  9990","ELEMENT_SET_NO":"999","LAUNCH_DATE":"2022-12-28","APOAPSIS":"560.100","DECAY_DATE":null,"SITE":"AFETR","ARG_OF_PERICENTER":"268.1975","RCS_SIZE":"LARGE","MEAN_ANOMALY":"91.8693","MEAN_MOTION_DDOT":"0.0000000000000","OBJECT_NAME":"STARLINK-5406","GP_ID":"232361371","ECCENTRICITY":"0.00015220","PERIAPSIS":"557.988","MEAN_MOTION":"15.02548098","CENTER_NAME":"EARTH","RA_OF_ASC_NODE":"272.6458","OBJECT_ID":"2022-177AS","PERIOD":"95.837","SEMIMAJOR_AXIS":"6937.179","EPHEMERIS_TYPE":"0","REF_FRAME":"TEME","MEAN_MOTION_DOT":"-0.00000165","COUNTRY_CODE":"US","OBJECT_TYPE":"PAYLOAD","CLASSIFICATION_TYPE":"U","MEAN_ELEMENT_THEORY":"SGP4"}];
